NORAD_CAT_ID,OBJECT_NAME,OBJECT_TYPE,EPOCH,MEAN_MOTION,ECCENTRICITY,INCLINATION,RA_OF_ASC_NODE,ARG_OF_PERICENTER,MEAN_ANOMALY,BSTAR,MEAN_MOTION_DOT,MEAN_MOTION_DDOT,TLE_LINE0,TLE_LINE1,TLE_LINE2,SEMIMAJOR_AXIS,PERIOD,APOGEE,PERIGEE,DECAYED
55946.0,STARLINK-5857,PAYLOAD,2023-04-05 22:00:00,15.69841144,0.0003065,69.9988,127.2272,275.4951,170.875,0.0011738,0.00142858,0.0,0 STARLINK-5857,1 55946U 23037AJ  23095.91667824  .00142858  00000-0  11738-2 0  9996,2 55946  69.9988 127.2272 0003065 275.4951 170.8750 15.69841144  1305,6737.488,91.729,361.419,357.288,0.0
55946.0,STARLINK-5857,PAYLOAD,2023-04-06 12:00:02,15.6991879,0.0003272,69.9998,125.587,282.6426,219.5831,0.00033207,0.00039896,0.0,0 STARLINK-5857,1 55946U 23037AJ  23096.50002315  .00039896  00000-0  33207-3 0  9993,2 55946  69.9998 125.5870 0003272 282.6426 219.5831 15.69918790  3628,6737.266,91.724,361.336,356.927,0.0
55946.0,STARLINK-5857,PAYLOAD,2023-04-06 14:00:01,15.69960871,0.0003318,69.9996,125.3526,281.3756,331.6752,-0.00041413,-0.00049789,0.0,0 STARLINK-5857,1 55946U 23037AJ  23096.58335648 -.00049789  00000-0 -41413-3 0  9991,2 55946  69.9996 125.3526 0003318 281.3756 331.6752 15.69960871  1303,6737.146,91.722,361.246,356.776,0.0
55946.0,STARLINK-5857,PAYLOAD,2023-04-06 22:00:00,15.69869431,0.0003263,69.9996,124.4155,271.3666,64.9974,0.00082468,0.00099908,0.0,0 STARLINK-5857,1 55946U 23037AJ  23096.91667824  .00099908  00000-0  82468-3 0  9993,2 55946  69.9996 124.4155 0003263 271.3666  64.9974 15.69869431  1301,6737.408,91.727,361.471,357.074,0.0
55946.0,STARLINK-5857,PAYLOAD,2023-04-07 06:00:00,15.69951381,0.0003419,69.9997,123.4784,270.5355,149.1415,-0.00054376,-0.00065165,0.0,0 STARLINK-5857,1 55946U 23037AJ  23097.25001157 -.00065165  00000-0 -54376-3 0  9999,2 55946  69.9997 123.4784 0003419 270.5355 149.1415 15.69951381  3740,6737.173,91.723,361.342,356.735,0.0
55946.0,STARLINK-5857,PAYLOAD,2023-04-07 14:00:01,15.69962683,0.0003338,69.9994,122.5411,272.0741,230.9258,-0.00048981,-0.00058791,0.0,0 STARLINK-5857,1 55946U 23037AJ  23097.58334491 -.00058791  00000-0 -48981-3 0  9997,2 55946  69.9994 122.5411 0003338 272.0741 230.9258 15.69962683  3796,6737.141,91.722,361.255,356.757,0.0
55946.0,STARLINK-5857,PAYLOAD,2023-04-08 03:09:21,15.69914317,0.0003635,69.9993,120.9997,274.1061,85.9719,-1.9515e-05,-2.558e-05,0.0,0 STARLINK-5857,1 55946U 23037AJ  23098.13150003 -.00002558  00000-0 -19515-4 0  9996,2 55946  69.9993 120.9997 0003635 274.1061  85.9719 15.69914317  3885,6737.279,91.725,361.593,356.695,0.0
55946.0,STARLINK-5857,PAYLOAD,2023-04-08 10:48:07,15.69922942,0.0002988,69.9993,120.1044,265.4752,94.6102,1.3208e-05,1.376e-05,0.0,0 STARLINK-5857,1 55946U 23037AJ  23098.45008333  .00001376  00000-0  13208-4 0  9997,2 55946  69.9993 120.1044 0002988 265.4752  94.6102 15.69922942  3932,6737.254,91.724,361.133,357.106,0.0
55946.0,STARLINK-5857,PAYLOAD,2023-04-09 11:16:09,15.69928907,0.0003212,70.0003,117.2391,263.9525,96.1305,3.9833e-05,4.58e-05,0.0,0 STARLINK-5857,1 55946U 23037AJ  23099.46954969  .00004580  00000-0  39833-4 0  9996,2 55946  70.0003 117.2391 0003212 263.9525  96.1305 15.69928907  3750,6737.237,91.724,361.266,356.938,0.0
55946.0,STARLINK-5857,PAYLOAD,2023-04-09 12:47:54,15.69928879,0.0003181,70.0001,117.0601,265.2892,94.7941,4.0719e-05,4.687e-05,0.0,0 STARLINK-5857,1 55946U 23037AJ  23099.53326669  .00004687  00000-0  40719-4 0  9997,2 55946  70.0001 117.0601 0003181 265.2892  94.7941 15.69928879  4105,6737.237,91.724,361.246,356.959,0.0
55946.0,STARLINK-5857,PAYLOAD,2023-04-10 13:15:56,15.69926917,0.0003306,70.0,114.1928,264.0037,96.0782,1.8078e-05,1.962e-05,0.0,0 STARLINK-5857,1 55946U 23037AJ  23100.55273372  .00001962  00000-0  18078-4 0  9990,2 55946  70.0000 114.1928 0003306 264.0037  96.0782 15.69926917  3929,6737.243,91.724,361.335,356.881,0.0
55946.0,STARLINK-5857,PAYLOAD,2023-04-10 17:51:11,15.69927427,0.0003157,70.0001,113.6558,269.9878,90.0956,1.0326e-05,1.029e-05,0.0,0 STARLINK-5857,1 55946U 23037AJ  23100.74388362  .00001029  00000-0  10326-4 0  9999,2 55946  70.0001 113.6558 0003157 269.9878  90.0956 15.69927427  3951,6737.242,91.724,361.234,356.98,0.0
55946.0,STARLINK-5857,PAYLOAD,2023-04-11 12:12:13,15.69920299,0.0003533,69.9996,111.5059,264.5599,95.5193,-8.2911e-06,-1.209e-05,0.0,0 STARLINK-5857,1 55946U 23037AJ  23101.50848728 -.00001209  00000-0 -82911-5 0  9993,2 55946  69.9996 111.5059 0003533 264.5599  95.5193 15.69920299  4070,6737.262,91.724,361.507,356.747,0.0
55946.0,STARLINK-5857,PAYLOAD,2023-04-11 18:19:13,15.6993139,0.0003669,69.9981,110.7894,266.5023,93.5753,1.7391e-05,1.879e-05,0.0,0 STARLINK-5857,1 55946U 23037AJ  23101.76334727  .00001879  00000-0  17391-4 0  9990,2 55946  69.9981 110.7894 0003669 266.5023  93.5753 15.69931390  4452,6737.23,91.724,361.567,356.623,0.0
55946.0,STARLINK-5857,PAYLOAD,2023-04-12 09:36:45,15.69919775,0.0003264,69.998,108.9979,266.3241,93.7581,3.0287e-06,1.51e-06,0.0,0 STARLINK-5857,1 55946U 23037AJ  23102.40052491  .00000151  00000-0  30287-5 0  9999,2 55946  69.9980 108.9979 0003264 266.3241  93.7581 15.69919775  4213,6737.264,91.724,361.328,356.929,0.0
55946.0,STARLINK-5857,PAYLOAD,2023-04-13 10:04:49,15.69897453,0.0002236,70.0,106.134,284.6787,75.416,-5.4217e-06,-8.63e-06,0.0,0 STARLINK-5857,1 55946U 23037AJ  23103.42001205 -.00000863  00000-0 -54217-5 0  9990,2 55946  70.0000 106.1340 0002236 284.6787  75.4160 15.69897453  4372,6737.327,91.726,360.699,357.686,0.0
55946.0,STARLINK-5857,PAYLOAD,2023-04-14 10:32:48,15.69929645,0.000283,70.0007,103.2694,265.4739,94.6134,9.973e-06,9.87e-06,0.0,0 STARLINK-5857,1 55946U 23037AJ  23104.43945296  .00000987  00000-0  99730-5 0  9993,2 55946  70.0007 103.2694 0002830 265.4739  94.6134 15.69929645  4534,6737.235,91.724,361.007,357.194,0.0
55946.0,STARLINK-5857,PAYLOAD,2023-04-15 09:29:07,15.69897621,0.0002216,70.0013,100.5798,257.6679,102.4268,-6.3976e-05,-7.887e-05,0.0,0 STARLINK-5857,1 55946U 23037AJ  23105.39522078 -.00007887  00000-0 -63976-4 0  9998,2 55946  70.0013 100.5798 0002216 257.6679 102.4268 15.69897621  5029,6737.327,91.726,360.685,357.699,0.0
55946.0,STARLINK-5857,PAYLOAD,2023-04-15 17:07:51,15.69917596,0.0003028,70.0012,99.6851,271.9262,88.1587,-5.6909e-07,-2.81e-06,0.0,0 STARLINK-5857,1 55946U 23037AJ  23105.71379573 -.00000281  00000-0 -56909-6 0  9995,2 55946  70.0012  99.6851 0003028 271.9262  88.1587 15.69917596  5078,6737.27,91.725,361.175,357.095,0.0
55946.0,STARLINK-5857,PAYLOAD,2023-04-16 02:18:21,15.69935848,0.0002971,70.0015,98.6102,270.8997,89.1858,3.0475e-05,3.455e-05,0.0,0 STARLINK-5857,1 55946U 23037AJ  23106.09608667  .00003455  00000-0  30475-4 0  9998,2 55946  70.0015  98.6102 0002971 270.8997  89.1858 15.69935848  5137,6737.218,91.723,361.084,357.081,0.0
55946.0,STARLINK-5857,PAYLOAD,2023-04-16 09:57:07,15.69927824,0.0003101,70.001,97.7138,270.1942,89.8898,1.3043e-05,1.356e-05,0.0,0 STARLINK-5857,1 55946U 23037AJ  23106.41467323  .00001356  00000-0  13043-4 0  9996,2 55946  70.0010  97.7138 0003101 270.1942  89.8898 15.69927824  5181,6737.24,91.724,361.195,357.016,0.0
55946.0,STARLINK-5857,PAYLOAD,2023-04-17 08:53:24,15.69927937,0.0002833,69.9998,95.0263,262.8311,97.2562,-1.8753e-05,-2.467e-05,0.0,0 STARLINK-5857,1 55946U 23037AJ  23107.37042391 -.00002467  00000-0 -18753-4 0  9995,2 55946  69.9998  95.0263 0002833 262.8311  97.2562 15.69927937  4996,6737.24,91.724,361.014,357.197,0.0
55946.0,STARLINK-5857,PAYLOAD,2023-04-18 01:42:41,15.69926523,0.0003352,69.9994,93.0551,268.0276,92.0535,1.0413e-05,1.04e-05,0.0,0 STARLINK-5857,1 55946U 23037AJ  23108.07130930  .00001040  00000-0  10413-4 0  9999,2 55946  69.9994  93.0551 0003352 268.0276  92.0535 15.69926523  5449,6737.244,91.724,361.368,356.851,0.0
55946.0,STARLINK-5857,PAYLOAD,2023-04-18 09:21:27,15.69903222,0.0002543,70.0017,92.1605,266.3948,93.6957,-5.0252e-05,-6.244e-05,0.0,0 STARLINK-5857,1 55946U 23037AJ  23108.38990440 -.00006244  00000-0 -50252-4 0  9991,2 55946  70.0017  92.1605 0002543 266.3948  93.6957 15.69903222  5150,6737.311,91.725,360.889,357.463,0.0
55946.0,STARLINK-5857,PAYLOAD,2023-04-19 02:10:43,15.69917646,0.0003218,70.0021,90.1924,268.2591,91.8237,1.2992e-05,1.349e-05,0.0,0 STARLINK-5857,1 55946U 23037AJ  23109.09078287  .00001349  00000-0  12992-4 0  9994,2 55946  70.0021  90.1924 0003218 268.2591  91.8237 15.69917646  5608,6737.27,91.725,361.303,356.967,0.0
55946.0,STARLINK-5857,PAYLOAD,2023-04-19 08:17:43,15.69930037,0.0002862,70.001,89.4732,257.2131,102.8745,1.4521e-05,1.534e-05,0.0,0 STARLINK-5857,1 55946U 23037AJ  23109.34564249  .00001534  00000-0  14521-4 0  9996,2 55946  70.0010  89.4732 0002862 257.2131 102.8745 15.69930037  5646,6737.234,91.724,361.027,357.171,0.0
55946.0,STARLINK-5857,PAYLOAD,2023-04-19 15:56:29,15.69914443,0.0003393,69.9996,88.577,263.5358,96.5451,-5.017e-06,-8.16e-06,0.0,0 STARLINK-5857,1 55946U 23037AJ  23109.66423372 -.00000816  00000-0 -50170-5 0  9997,2 55946  69.9996  88.5770 0003393 263.5358  96.5451 15.69914443  5690,6737.279,91.725,361.43,356.858,0.0
55946.0,STARLINK-5857,PAYLOAD,2023-04-20 01:06:59,15.69939591,0.0002819,70.0011,87.5026,241.7083,118.3828,4.2415e-05,4.893e-05,0.0,0 STARLINK-5857,1 55946U 23037AJ  23110.04652295  .00004893  00000-0  42415-4 0  9998,2 55946  70.0011  87.5026 0002819 241.7083 118.3828 15.69939591  5758,6737.207,91.723,360.971,357.173,0.0
55946.0,STARLINK-5857,PAYLOAD,2023-04-20 08:45:46,15.69898245,0.0002658,70.0006,86.607,253.9643,106.126,-3.909e-05,-4.904e-05,0.0,0 STARLINK-5857,1 55946U 23037AJ  23110.36512712 -.00004904  00000-0 -39090-4 0  9992,2 55946  70.0006  86.6070 0002658 253.9643 106.1260 15.69898245  5462,6737.325,91.726,360.981,357.399,0.0
55946.0,STARLINK-5857,PAYLOAD,2023-04-21 06:10:17,15.69930799,0.0003059,69.9998,84.0967,259.7917,100.2933,9.9296e-06,9.82e-06,0.0,0 STARLINK-5857,1 55946U 23037AJ  23111.25714451  .00000982  00000-0  99296-5 0  9990,2 55946  69.9998  84.0967 0003059 259.7917 100.2933 15.69930799  5609,6737.232,91.724,361.158,357.036,0.0
